{"type": "FeatureCollection", "features": [ {"type": "Feature", "properties": {"norad_id": 66986, "name": "STARLINK-36135", "group": "last-30-days", "lat": -5.596664769504184, "lon": -35.22333245804243, "alt_km": 301.9174875419985, "timestamp": "2025-12-17T09:00:15.893286+00:00", "meta": {"OBJECT_NAME": "STARLINK-36135", "OBJECT_ID": "2025-288AD", "EPOCH": "2025-12-16T14:00:03.000384", "MEAN_MOTION": 15.92642387, "ECCENTRICITY": 0.00016814, "INCLINATION": 43.0011, "RA_OF_ASC_NODE": 143.6626, "ARG_OF_PERICENTER": 267.8372, "MEAN_ANOMALY": 58.252, "EPHEMERIS_TYPE": 0, "CLASSIFICATION_TYPE": "U", "NORAD_CAT_ID": 66986, "ELEMENT_SET_NO": 999, "REV_AT_EPOCH": 245, "BSTAR": -0.0044628968, "MEAN_MOTION_DOT": -0.01581478, "MEAN_MOTION_DDOT": 0.00070371327}, "tle": {"line1": "1 66986U 25288AD  25350.58336806 -.01581478  70371-3 -44629-2 0  9998", "line2": "2 66986  43.0011 143.6626 0001681 267.8372  58.2520 15.92642387  2455"}}, "geometry": {"type": "Point", "coordinates": [-35.22333245804243, -5.596664769504184]}}, {"type": "Feature", "properties": {"norad_id": 66987, "name": "STARLINK-36147", "group": "last-30-days", "lat": -6.997267866601429, "lon": -33.69588404982534, "alt_km": 301.7964004116502, "timestamp": "2025-12-17T09:00:15.893298+00:00", "meta": {"OBJECT_NAME": "STARLINK-36147", "OBJECT_ID": "2025-288AE", "EPOCH": "2025-12-16T14:00:03.000384", "MEAN_MOTION": 15.92698379, "ECCENTRICITY": 0.00016681, "INCLINATION": 43.0016, "RA_OF_ASC_NODE": 143.6583, "ARG_OF_PERICENTER": 265.3485, "MEAN_ANOMALY": 62.6556, "EPHEMERIS_TYPE": 0, "CLASSIFICATION_TYPE": "U", "NORAD_CAT_ID": 66987, "ELEMENT_SET_NO": 999, "REV_AT_EPOCH": 245, "BSTAR": -0.004457972, "MEAN_MOTION_DOT": -0.01584339, "MEAN_MOTION_DDOT": 0.00070644415}, "tle": {"line1": "1 66987U 25288AE  25350.58336806 -.01584339  70644-3 -44580-2 0  9997", "line2": "2 66987  43.0016 143.6583 0001668 265.3485  62.6556 15.92698379  2456"}}, "geometry": {"type": "Point", "coordinates": [-33.69588404982534, -6.997267866601429]}}, {"type": "Feature", "properties": {"norad_id": 66988, "name": "YAOGAN-47", "group": "last-30-days", "lat": -16.406674697574918, "lon": -125.72657248837305, "alt_km": 501.55043017404114, "timestamp": "2025-12-17T09:00:15.893308+00:00", "meta": {"OBJECT_NAME": "YAOGAN-47", "OBJECT_ID": "2025-289A", "EPOCH": "2025-12-15T02:32:19.481856", "MEAN_MOTION": 15.23184629, "ECCENTRICITY": 7.87e-05, "INCLINATION": 97.5271, "RA_OF_ASC_NODE": 54.2297, "ARG_OF_PERICENTER": 67.3408, "MEAN_ANOMALY": 292.7912, "EPHEMERIS_TYPE": 0, "CLASSIFICATION_TYPE": "U", "NORAD_CAT_ID": 66988, "ELEMENT_SET_NO": 999, "REV_AT_EPOCH": 90, "BSTAR": 0.00011849353, "MEAN_MOTION_DOT": 2.729e-05, "MEAN_MOTION_DDOT": 0}, "tle": {"line1": "1 66988U 25289A   25349.10578104  .00002729  00000+0  11849-3 0  9997", "line2": "2 66988  97.5271  54.2297 0000787  67.3408 292.7912 15.23184629   901"}}, "geometry": {"type": "Point", "coordinates": [-125.72657248837305, -16.406674697574918]}}, {"type": "Feature", "properties": {"norad_id": 66989, "name": "CZ-4B R/B", "group": "last-30-days", "lat": 30.238373913004263, "lon": 52.63479146337674, "alt_km": 292.24420818538056, "timestamp": "2025-12-17T09:00:15.893321+00:00", "meta": {"OBJECT_NAME": "CZ-4B R/B", "OBJECT_ID": "2025-289B", "EPOCH": "2025-12-16T17:33:52.394688", "MEAN_MOTION": 15.68199823, "ECCENTRICITY": 0.01460117, "INCLINATION": 97.5268, "RA_OF_ASC_NODE": 56.3647, "ARG_OF_PERICENTER": 347.8669, "MEAN_ANOMALY": 11.9088, "EPHEMERIS_TYPE": 0, "CLASSIFICATION_TYPE": "U", "NORAD_CAT_ID": 66989, "ELEMENT_SET_NO": 999, "REV_AT_EPOCH": 119, "BSTAR": 0.00057740752, "MEAN_MOTION_DOT": 0.00118047, "MEAN_MOTION_DDOT": 6.198974e-06}, "tle": {"line1": "1 66989U 25289B   25350.73185642  .00118047  61990-5  57741-3 0  9993", "line2": "2 66989  97.5268  56.3647 0146011 347.8669  11.9088 15.68199823  1194"}}, "geometry": {"type": "Point", "coordinates": [52.63479146337674, 30.238373913004263]}}, {"type": "Feature", "properties": {"norad_id": 66990, "name": "TJS-22", "group": "last-30-days", "lat": 9.798268725732616, "lon": -32.47978836656393, "alt_km": 28756.48752627416, "timestamp": "2025-12-17T09:00:15.893333+00:00", "meta": {"OBJECT_NAME": "TJS-22", "OBJECT_ID": "2025-290A", "EPOCH": "2025-12-10T07:11:32.845344", "MEAN_MOTION": 2.15443148, "ECCENTRICITY": 0.6664534, "INCLINATION": 20.1261, "RA_OF_ASC_NODE": 301.1464, "ARG_OF_PERICENTER": 180.6877, "MEAN_ANOMALY": 177.6237, "EPHEMERIS_TYPE": 0, "CLASSIFICATION_TYPE": "U", "NORAD_CAT_ID": 66990, "ELEMENT_SET_NO": 999, "REV_AT_EPOCH": 3, "BSTAR": 0.079788243, "MEAN_MOTION_DOT": -3.8e-07, "MEAN_MOTION_DDOT": 0}, "tle": {"line1": "1 66990U 25290A   25344.29968571 -.00000038  00000+0  79788-1 0  9994", "line2": "2 66990  20.1261 301.1464 6664534 180.6877 177.6237  2.15443148    32"}}, "geometry": {"type": "Point", "coordinates": [-32.47978836656393, 9.798268725732616]}}, {"type": "Feature", "properties": {"norad_id": 66991, "name": "CZ-3B R/B", "group": "last-30-days", "lat": -2.103830569791496, "lon": -64.073428857031, "alt_km": 33367.625666430984, "timestamp": "2025-12-17T09:00:15.893345+00:00", "meta": {"OBJECT_NAME": "CZ-3B R/B", "OBJECT_ID": "2025-290B", "EPOCH": "2025-12-15T17:23:33.043200", "MEAN_MOTION": 2.38388611, "ECCENTRICITY": 0.7240884, "INCLINATION": 28.4636, "RA_OF_ASC_NODE": 300.4666, "ARG_OF_PERICENTER": 182.7002, "MEAN_ANOMALY": 168.625, "EPHEMERIS_TYPE": 0, "CLASSIFICATION_TYPE": "U", "NORAD_CAT_ID": 66991, "ELEMENT_SET_NO": 999, "REV_AT_EPOCH": 16, "BSTAR": 0.00075879, "MEAN_MOTION_DOT": 0.00057911, "MEAN_MOTION_DDOT": -2.0514e-07}, "tle": {"line1": "1 66991U 25290B   25349.72468800  .00057911 -20514-6  75879-3 0  9998", "line2": "2 66991  28.4636 300.4666 7240884 182.7002 168.6250  2.38388611   165"}}, "geometry": {"type": "Point", "coordinates": [-64.073428857031, -2.103830569791496]}}, {"type": "Feature", "properties": {"norad_id": 66993, "name": "2025-292A", "group": "last-30-days", "lat": -66.13433382194381, "lon": -133.81319188193794, "alt_km": 550.7533363102139, "timestamp": "2025-12-17T09:00:15.893355+00:00", "meta": {"OBJECT_NAME": "2025-292A", "OBJECT_ID": "2025-292A", "EPOCH": "2025-12-16T19:08:17.870784", "MEAN_MOTION": 15.0452441, "ECCENTRICITY": 0.00137835, "INCLINATION": 97.6536, "RA_OF_ASC_NODE": 63.3095, "ARG_OF_PERICENTER": 257.5747, "MEAN_ANOMALY": 102.3937, "EPHEMERIS_TYPE": 0, "CLASSIFICATION_TYPE": "U", "NORAD_CAT_ID": 66993, "ELEMENT_SET_NO": 999, "REV_AT_EPOCH": 100, "BSTAR": 0.00024707184, "MEAN_MOTION_DOT": 3.406e-05, "MEAN_MOTION_DDOT": 0}, "tle": {"line1": "1 66993U 25292A   25350.79742906  .00003406  00000+0  24707-3 0  9997", "line2": "2 66993  97.6536  63.3095 0013783 257.5747 102.3937 15.04524410  1008"}}, "geometry": {"type": "Point", "coordinates": [-133.81319188193794, -66.13433382194381]}}, {"type": "Feature", "properties": {"norad_id": 66994, "name": "2025-292B", "group": "last-30-days", "lat": -67.25888844726848, "lon": -134.82986164971578, "alt_km": 550.6260522826442, "timestamp": "2025-12-17T09:00:15.893366+00:00", "meta": {"OBJECT_NAME": "2025-292B", "OBJECT_ID": "2025-292B", "EPOCH": "2025-12-16T17:32:14.053344", "MEAN_MOTION": 15.04568038, "ECCENTRICITY": 0.00138285, "INCLINATION": 97.6528, "RA_OF_ASC_NODE": 63.2425, "ARG_OF_PERICENTER": 260.0817, "MEAN_ANOMALY": 99.8848, "EPHEMERIS_TYPE": 0, "CLASSIFICATION_TYPE": "U", "NORAD_CAT_ID": 66994, "ELEMENT_SET_NO": 999, "REV_AT_EPOCH": 99, "BSTAR": 0.00028326555, "MEAN_MOTION_DOT": 3.919e-05, "MEAN_MOTION_DDOT": 0}, "tle": {"line1": "1 66994U 25292B   25350.73071821  .00003919  00000+0  28327-3 0  9994", "line2": "2 66994  97.6528  63.2425 0013828 260.0817  99.8848 15.04568038   995"}}, "geometry": {"type": "Point", "coordinates": [-134.82986164971578, -67.25888844726848]}}, {"type": "Feature", "properties": {"norad_id": 66995, "name": "2025-292C", "group": "last-30-days", "lat": -67.43757533482083, "lon": -135.00118818550368, "alt_km": 550.5184647718088, "timestamp": "2025-12-17T09:00:15.893376+00:00", "meta": {"OBJECT_NAME": "2025-292C", "OBJECT_ID": "2025-292C", "EPOCH": "2025-12-16T22:19:29.893440", "MEAN_MOTION": 15.04587621, "ECCENTRICITY": 0.00138381, "INCLINATION": 97.6535, "RA_OF_ASC_NODE": 63.4416, "ARG_OF_PERICENTER": 257.7327, "MEAN_ANOMALY": 102.2349, "EPHEMERIS_TYPE": 0, "CLASSIFICATION_TYPE": "U", "NORAD_CAT_ID": 66995, "ELEMENT_SET_NO": 999, "REV_AT_EPOCH": 102, "BSTAR": 0.0003222694, "MEAN_MOTION_DOT": 4.47e-05, "MEAN_MOTION_DDOT": 0}, "tle": {"line1": "1 66995U 25292C   25350.93020710  .00004470  00000+0  32227-3 0  9995", "line2": "2 66995  97.6535  63.4416 0013838 257.7327 102.2349 15.04587621  1025"}}, "geometry": {"type": "Point", "coordinates": [-135.00118818550368, -67.43757533482083]}}, {"type": "Feature", "properties": {"norad_id": 66996, "name": "2025-292D", "group": "last-30-days", "lat": -68.62408828247483, "lon": -136.20964215821374, "alt_km": 551.015978478782, "timestamp": "2025-12-17T09:00:15.893386+00:00", "meta": {"OBJECT_NAME": "2025-292D", "OBJECT_ID": "2025-292D", "EPOCH": "2025-12-16T19:07:38.827488", "MEAN_MOTION": 15.0462476, "ECCENTRICITY": 0.00130199, "INCLINATION": 97.6529, "RA_OF_ASC_NODE": 63.3097, "ARG_OF_PERICENTER": 260.9745, "MEAN_ANOMALY": 99.0007, "EPHEMERIS_TYPE": 0, "CLASSIFICATION_TYPE": "U", "NORAD_CAT_ID": 66996, "ELEMENT_SET_NO": 999, "REV_AT_EPOCH": 100, "BSTAR": 0.00021639716, "MEAN_MOTION_DOT": 2.983e-05, "MEAN_MOTION_DDOT": 0}, "tle": {"line1": "1 66996U 25292D   25350.79697717  .00002983  00000+0  21640-3 0  9991", "line2": "2 66996  97.6529  63.3097 0013019 260.9745  99.0007 15.04624760  1002"}}, "geometry": {"type": "Point", "coordinates": [-136.20964215821374, -68.62408828247483]}}]}